NORAD_CAT_ID,OBJECT_NAME,OBJECT_TYPE,EPOCH,MEAN_MOTION,ECCENTRICITY,INCLINATION,RA_OF_ASC_NODE,ARG_OF_PERICENTER,MEAN_ANOMALY,BSTAR,MEAN_MOTION_DOT,MEAN_MOTION_DDOT,TLE_LINE0,TLE_LINE1,TLE_LINE2,SEMIMAJOR_AXIS,PERIOD,APOGEE,PERIGEE,DECAYED
51891.0,STARLINK-3549,PAYLOAD,2022-05-09 14:00:01,15.655246300000002,0.0001264,53.2173,172.8139,55.1943,49.5204,-0.0075686,-0.00710035,0.0,0 STARLINK-3549,1 51891U 22022AR  22129.58335648 -.00710035  00000-0 -75686-2 0  9992,2 51891  53.2173 172.8139 0001264  55.1943  49.5204 15.65524630  3710,6749.8669999999975,91.982,372.586,370.879,0.0
51891.0,STARLINK-3549,PAYLOAD,2022-05-09 22:00:00,15.65016707,0.0001424,53.2174,171.1827,50.7944,133.2534,-0.0077606,-0.00713094,0.0,0 STARLINK-3549,1 51891U 22022AR  22129.91667824 -.00713094  00000-0 -77606-2 0  9995,2 51891  53.2174 171.1827 0001424  50.7944 133.2534 15.65016707  3704,6751.328,92.012,374.154,372.231,0.0
51891.0,STARLINK-3549,PAYLOAD,2022-05-10 14:00:01,15.63997109,0.0001107999999999,53.2173,167.9301,60.9635,280.0401,-0.0080846,-0.00713141,0.0,0 STARLINK-3549,1 51891U 22022AR  22130.58334491 -.00713141  00000-0 -80846-2 0  9994,2 51891  53.2173 167.9301 0001108  60.9635 280.0401 15.63997109 11965,6754.262,92.072,376.875,375.378,0.0
51891.0,STARLINK-3549,PAYLOAD,2022-05-10 18:00:00,15.6373771,0.0001425,53.2167,167.1157,47.8185,152.0443,-0.0080983999999999,-0.00707586,0.0,0 STARLINK-3549,1 51891U 22022AR  22130.75001157 -.00707586  00000-0 -80984-2 0  9992,2 51891  53.2167 167.1157 0001425  47.8185 152.0443 15.63737710  3689,6755.009,92.087,377.836,375.911,0.0
51891.0,STARLINK-3549,PAYLOAD,2022-05-11 22:00:00,15.61956728,0.0001359,53.2176,161.4332,48.7349,238.8319,-0.0087524,-0.00712459,0.0,0 STARLINK-3549,1 51891U 22022AR  22131.91667824 -.00712459  00000-0 -87524-2 0  9992,2 51891  53.2176 161.4332 0001359  48.7349 238.8319 15.61956728 12178,6760.142,92.192,382.926,381.089,0.0
51891.0,STARLINK-3549,PAYLOAD,2022-05-12 14:00:01,15.60938146,0.0001544,53.2171,158.1952,36.6707,40.4982,-0.0091285,-0.00714067,0.0,0 STARLINK-3549,1 51891U 22022AR  22132.58334491 -.00714067  00000-0 -91285-2 0  9993,2 51891  53.2171 158.1952 0001544  36.6707  40.4982 15.60938146  1303,6763.083000000001,92.252,385.992,383.904,0.0
51891.0,STARLINK-3549,PAYLOAD,2022-05-12 20:00:01,15.60555179,0.0001443,53.2175,156.98,37.3813,5.2585,-0.0092627,-0.00713892,0.0,0 STARLINK-3549,1 51891U 22022AR  22132.83334491 -.00713892  00000-0 -92627-2 0  9997,2 51891  53.2175 156.9800 0001443  37.3813   5.2585 15.60555179 12311,6764.189,92.275,387.03,385.078,0.0
51891.0,STARLINK-3549,PAYLOAD,2022-05-12 22:00:00,15.60427138,0.0001579,53.2172,156.5752,41.1107,109.9427,-0.0092911,-0.00712683,0.0,0 STARLINK-3549,1 51891U 22022AR  22132.91667824 -.00712683  00000-0 -92911-2 0  9998,2 51891  53.2172 156.5752 0001579  41.1107 109.9427 15.60427138  1306,6764.559,92.282,387.492,385.356,0.0
51891.0,STARLINK-3549,PAYLOAD,2022-05-13 14:00:01,15.59409174,0.00012,53.2173,153.3445,62.2768,234.7017,-0.0096971,-0.00714976,0.0,0 STARLINK-3549,1 51891U 22022AR  22133.58334491 -.00714976  00000-0 -96971-2 0  9990,2 51891  53.2173 153.3445 0001200  62.2768 234.7017 15.59409174  1309,6767.503000000002,92.343,390.18,388.556,0.0
51891.0,STARLINK-3549,PAYLOAD,2022-05-13 22:00:00,15.58896803,0.0001082,53.2174,151.7282,63.6795,305.346,-0.0098478,-0.00712225,0.0,0 STARLINK-3549,1 51891U 22022AR  22133.91667824 -.00712225  00000-0 -98478-2 0  9995,2 51891  53.2174 151.7282 0001082  63.6795 305.3460 15.58896803 12480,6768.986,92.373,391.583,390.11800000000005,0.0
51891.0,STARLINK-3549,PAYLOAD,2022-05-14 14:00:01,15.57878995,0.0001536,53.2172,148.5049,43.9685,107.3055,-0.010281,-0.00715173,0.0,0 STARLINK-3549,1 51891U 22022AR  22134.58334491 -.00715173  00000-0 -10281-1 0  9990,2 51891  53.2172 148.5049 0001536  43.9685 107.3055 15.57878995  1306,6771.934,92.433,394.839,392.758,0.0
51891.0,STARLINK-3549,PAYLOAD,2022-05-14 22:00:00,15.57368011,0.0001513,53.2173,146.8922,48.8479,172.6337,-0.010452,-0.00713331,0.0,0 STARLINK-3549,1 51891U 22022AR  22134.91667824 -.00713331  00000-0 -10452-1 0  9990,2 51891  53.2173 146.8922 0001513  48.8479 172.6337 15.57368011 12648,6773.415,92.464,396.305,394.255,0.0
51891.0,STARLINK-3549,PAYLOAD,2022-05-15 14:00:01,15.56349382,0.0001248,53.2172,143.6765,50.7544,309.3639,-0.010883,-0.007147,0.0,0 STARLINK-3549,1 51891U 22022AR  22135.58335648 -.00714700  00000-0 -10883-1 0  9999,2 51891  53.2172 143.6765 0001248  50.7544 309.3639 15.56349382  1312,6776.37,92.524,399.081,397.389,0.0
51891.0,STARLINK-3549,PAYLOAD,2022-05-15 22:00:00,15.55837723,0.0001389,53.2172,142.0676,43.2406,25.1828,-0.01107,-0.00713378,0.0,0 STARLINK-3549,1 51891U 22022AR  22135.91667824 -.00713378  00000-0 -11070-1 0  9999,2 51891  53.2172 142.0676 0001389  43.2406  25.1828 15.55837723 12793,6777.856,92.555,400.662,398.779,0.0
51891.0,STARLINK-3549,PAYLOAD,2022-05-16 14:00:01,15.54819851,0.0001483,53.2171,138.859,50.598,152.7206,-0.011544,-0.00716123,0.0,0 STARLINK-3549,1 51891U 22022AR  22136.58334491 -.00716123  00000-0 -11544-1 0  9991,2 51891  53.2171 138.8590 0001483  50.5980 152.7206 15.54819851  1306,6780.813,92.615,403.684,401.673,0.0
51891.0,STARLINK-3549,PAYLOAD,2022-05-16 22:00:00,15.54307424,0.0001438,53.2173,137.2538,50.8396,219.0102,-0.01169,-0.00711971,0.0,0 STARLINK-3549,1 51891U 22022AR  22136.91667824 -.00711971  00000-0 -11690-1 0  9995,2 51891  53.2173 137.2538 0001438  50.8396 219.0102 15.54307424 12950,6782.304,92.646,405.144,403.193,0.0
51891.0,STARLINK-3549,PAYLOAD,2022-05-17 14:00:01,15.53288971,0.0001294,53.2172,134.0524,48.3696,352.7635,-0.012163,-0.00713461,0.0,0 STARLINK-3549,1 51891U 22022AR  22137.58335648 -.00713461  00000-0 -12163-1 0  9997,2 51891  53.2172 134.0524 0001294  48.3696 352.7635 15.53288971  1301,6785.268,92.707,408.011,406.255,0.0
51891.0,STARLINK-3549,PAYLOAD,2022-05-17 20:00:01,15.52904124,0.0001344,53.2174,132.8512,44.1846,315.4613,-0.012272,-0.00710134,0.0,0 STARLINK-3549,1 51891U 22022AR  22137.83334491 -.00710134  00000-0 -12272-1 0  9995,2 51891  53.2174 132.8512 0001344  44.1846 315.4613 15.52904124 13098,6786.389,92.729,409.166,407.342,0.0
51891.0,STARLINK-3549,PAYLOAD,2022-05-17 22:00:01,15.52778511,0.0001515,53.2174,132.4512,43.2494,62.5759,-0.012394,-0.00713635,0.0,0 STARLINK-3549,1 51891U 22022AR  22137.91668981 -.00713635  00000-0 -12394-1 0  9992,2 51891  53.2174 132.4512 0001515  43.2494  62.5759 15.52778511  1304,6786.755,92.737,409.648,407.592,0.0
51891.0,STARLINK-3549,PAYLOAD,2022-05-18 14:00:01,15.51759927,0.0001435,53.2171,129.257,56.517,176.7859,-0.012898,-0.00724726,0.0,0 STARLINK-3549,1 51891U 22022AR  22138.58334491 -.00724726  00000-0 -12898-1 0  9994,2 51891  53.2171 129.2570 0001435  56.5170 176.7859 15.51759927  1306,6789.725,92.798,412.564,410.615,0.0
51891.0,STARLINK-3549,PAYLOAD,2022-05-18 20:00:01,15.51375182,0.0001582,53.2171,128.0586,45.587,144.9142,-0.012989,-0.00711101,0.0,0 STARLINK-3549,1 51891U 22022AR  22138.83334491 -.00711101  00000-0 -12989-1 0  9996,2 51891  53.2171 128.0586 0001582  45.5870 144.9142 15.51375182 13254,6790.847,92.821,413.786,411.638,0.0
51891.0,STARLINK-3549,PAYLOAD,2022-05-18 22:00:00,15.51247305,0.0001422,53.2174,127.6596,49.988,246.1692,-0.0130419999999999,-0.00719799,0.0,0 STARLINK-3549,1 51891U 22022AR  22138.91667824 -.00719799  00000-0 -13042-1 0  9996,2 51891  53.2174 127.6596 0001422  49.9880 246.1692 15.51247305  1308,6791.22,92.829,414.051,412.12,0.0
51891.0,STARLINK-3549,PAYLOAD,2022-05-19 14:00:01,15.50092419,0.0001236,53.2172,124.4722,55.4051,4.7057,-0.0054095,-0.00298254,0.0,0 STARLINK-3549,1 51891U 22022AR  22139.58335648 -.00298254  00000-0 -54095-2 0  9998,2 51891  53.2172 124.4722 0001236  55.4051   4.7057 15.50092419  1303,6794.593000000003,92.898,417.298,415.61800000000005,0.0
51891.0,STARLINK-3549,PAYLOAD,2022-05-19 22:00:00,15.49887152,0.000146,53.2173,122.8776,49.2849,71.7897,-4.6186e-05,-3.072e-05,0.0,0 STARLINK-3549,1 51891U 22022AR  22139.91667824 -.00003072  00000-0 -46186-4 0  9995,2 51891  53.2173 122.8776 0001460  49.2849  71.7897 15.49887152 13415,6795.193,92.91,418.05,416.066,0.0
51891.0,STARLINK-3549,PAYLOAD,2022-05-20 06:00:00,15.49922723,0.0001694,53.2152,121.2769,52.2287,129.9531,0.0001396999999999,7.495e-05,0.0,0 STARLINK-3549,1 51891U 22022AR  22140.25001157  .00007495  00000-0  13970-3 0  9990,2 51891  53.2152 121.2769 0001694  52.2287 129.9531 15.49922723 13477,6795.089,92.908,418.105,415.80300000000005,0.0
51891.0,STARLINK-3549,PAYLOAD,2022-05-20 14:00:01,15.49949987,0.0001563,53.2157,119.6831,50.6181,192.5352,-0.0013987,-0.0007922,0.0,0 STARLINK-3549,1 51891U 22022AR  22140.58334491 -.00079220  00000-0 -13987-2 0  9990,2 51891  53.2157 119.6831 0001563  50.6181 192.5352 15.49949987  1300,6795.009,92.906,417.936,415.812,0.0
51891.0,STARLINK-3549,PAYLOAD,2022-05-20 22:00:00,15.49928798,0.0001494,53.216,118.0887,60.9639,243.1407,-0.00089452,-0.0005097,0.0,0 STARLINK-3549,1 51891U 22022AR  22140.91667824 -.00050970  00000-0 -89452-3 0  9998,2 51891  53.2160 118.0887 0001494  60.9639 243.1407 15.49928798  1304,6795.071,92.907,417.951,415.921,0.0
51891.0,STARLINK-3549,PAYLOAD,2022-05-21 06:00:00,15.49893889,0.0001718,53.2159,116.4975,59.0019,306.1559,0.00041401,0.00023123,0.0,0 STARLINK-3549,1 51891U 22022AR  22141.25001157  .00023123  00000-0  41401-3 0  9997,2 51891  53.2159 116.4975 0001718  59.0019 306.1559 15.49893889  1302,6795.1730000000025,92.91,418.206,415.871,0.0
51891.0,STARLINK-3549,PAYLOAD,2022-05-21 14:00:01,15.49982355,0.0001565999999999,53.2153,114.9035,58.1821,7.9581,-0.0033937,-0.00189142,0.0,0 STARLINK-3549,1 51891U 22022AR  22141.58335648 -.00189142  00000-0 -33937-2 0  9998,2 51891  53.2153 114.9035 0001566  58.1821   7.9581 15.49982355 13679,6794.915,92.904,417.844,415.716,0.0
